OBJECT_NAME,OBJECT_ID,EPOCH,MEAN_MOTION,ECCENTRICITY,INCLINATION,RA_OF_ASC_NODE,ARG_OF_PERICENTER,MEAN_ANOMALY,EPHEMERIS_TYPE,CLASSIFICATION_TYPE,NORAD_CAT_ID,ELEMENT_SET_NO,REV_AT_EPOCH,BSTAR,MEAN_MOTION_DOT,MEAN_MOTION_DDOT
ASNARO-2,2018-007A,2026-06-13T18:26:14.545824,15.22403605,.0001711,97.3967,171.7488,90.0240,270.1193,0,U,43152,999,46689,.445E-3,.10218E-3,0
JILIN-1 07,2018-008E,2026-06-13T15:17:39.873120,15.34668020,.00100826,97.1768,184.6605,75.8432,284.3932,0,U,43159,999,46445,.27562379E-3,.9199E-4,0
JILIN-1 08,2018-008F,2026-06-13T15:14:39.630624,15.33673702,.00080821,97.1800,183.9786,89.7386,270.4783,0,U,43160,999,46440,.18249729E-3,.5871E-4,0
S-NET A,2018-014J,2026-06-13T05:43:08.836608,15.16645203,.0009715,97.5389,69.2482,38.5958,321.5967,0,U,43188,999,45816,.25344E-3,.4895E-4,0
S-NET C,2018-014K,2026-06-13T15:36:43.363296,15.16604983,.00108494,97.5405,69.7323,29.3579,330.8261,0,U,43189,999,45677,.25953886E-3,.501E-4,0
PAZ,2018-020A,2026-06-13T11:37:18.887232,15.19160868,.00016958,97.4454,171.9227,87.8122,272.3307,0,U,43215,999,46044,.85333121E-4,.1726E-4,0
GOES 17,2018-022A,2026-06-13T12:43:42.536352,1.00270307,.00004149,0.9277,85.7717,32.1494,245.3562,0,U,43226,999,3038,0,-.172E-5,0
LKW-4,2018-025A,2026-06-13T10:16:24.075552,15.61990085,.00017842,97.6334,335.0082,311.0759,49.0344,0,U,43236,999,45944,.46427687E-3,.40487E-3,0
ZHUHAI-1 OHS-02,2018-040C,2026-06-13T14:37:58.810080,15.25834054,.00076998,97.0370,188.9874,234.8035,125.2484,0,U,43441,999,11373,.33634259E-3,.8547E-4,0
GAOFEN-6,2018-048A,2026-06-13T14:45:49.728096,14.76596397,.00115205,97.8551,227.4544,178.9049,181.2189,0,U,43484,999,43286,.17238156E-3,.1155E-4,0
PAKTES 1A,2018-056A,2026-06-13T16:00:55.323072,14.99094400,.00222534,98.1298,321.0042,117.0982,243.2513,0,U,43529,999,43139,.13293322E-3,.1557E-4,0
PRSS-1,2018-056B,2026-06-13T14:40:24.403584,14.81984086,.00016773,97.7825,232.5800,75.5162,284.6237,0,U,43530,999,42790,.14917053E-3,.1132E-4,0
SSTL S1-4,2018-071A,2026-06-13T14:39:16.355808,14.96180098,.000149,97.5050,36.3747,99.8057,260.3333,0,U,43618,999,42240,.99931339E-4,.1071E-4,0
HAIYANG-2B,2018-081A,2026-06-13T14:36:23.649120,13.79306683,.00006258,99.3283,173.4187,6.5241,353.5919,0,U,43655,999,38443,.18398675E-3,.145E-5,0
TEN-KOH,2018-084G,2026-06-13T12:41:02.408640,15.02930496,.00112095,98.0776,356.7381,124.9867,235.2411,0,U,43677,999,41561,.17511714E-3,.2288E-4,0
DIWATA-2B,2018-084H,2026-06-13T15:14:59.003232,15.00436708,.00122835,98.1179,0.6898,181.5737,178.5449,0,U,43678,999,41568,.20450415E-3,.251E-4,0
AUTCUBE 2,2018-084K,2026-06-13T12:28:19.272000,15.10067794,.0010122,98.0714,10.5003,60.1737,300.0496,0,U,43681,999,41637,.27223011E-3,.4365E-4,0
METOP-C,2018-087A,2026-06-13T14:51:27.077760,14.21511232,.00016393,98.6645,224.2878,133.4580,226.6734,0,U,43689,999,39432,.6518054E-4,.99E-6,0
MOHAMMED VI-B,2018-095A,2026-06-13T15:42:16.817184,14.77115328,.00012662,97.9561,237.0282,94.7230,265.4125,0,U,43717,999,40766,.16231024E-3,.1096E-4,0
HYSIS,2018-096A,2026-06-13T14:59:57.912576,14.78691911,.00018921,97.9846,231.4013,109.5227,250.6189,0,U,43719,999,40689,.25427287E-3,.1813E-4,0
COSMOS 2530 (RODNIK-S 16),2018-097A,2026-06-13T14:14:26.513952,12.42880932,.00203133,82.5149,224.5106,47.2452,313.0333,0,U,43751,999,34184,.41401631E-4,.16E-6,0
