{"fetched_at":"2026-06-14T08:17:21Z","count":15259,"tles":[{"name":"METOP-C","line1":"1 43689U 18087A   26164.61906340  .00000099  00000+0  65181-4 0  9994","line2":"2 43689  98.6645 224.2878 0001639 133.4580 226.6734 14.21511232394329","category":"Weather"},{"name":"COSMOS 2530 (RODNIK-S *)","line1":"1 43751U 18097A   26164.59336243  .00000016  00000+0  41402-4 0  9990","line2":"2 43751  82.5149 224.5106 0020313  47.2452 313.0333 12.42880932341849","category":"Other"},{"name":"JILIN-1 07","line1":"1 43159U 18008E   26164.63726705  .00009199  00000+0  27562-3 0  9996","line2":"2 43159  97.1768 184.6605 0010082  75.8432 284.3932 15.34668020464451","category":"Other"},{"name":"TEN-KOH","line1":"1 43677U 18084G   26164.52850010  .00002288  00000+0  17512-3 0  9996","line2":"2 43677  98.0776 356.7381 0011209 124.9867 235.2411 15.02930496415613","category":"Other"},{"name":"S-NET A","line1":"1 43188U 18014J   26164.23829672  .00004895  00000+0  25344-3 0  9992","line2":"2 43188  97.5389  69.2482 0009715  38.5958 321.5967 15.16645203458168","category":"Other"},{"name":"PAZ","line1":"1 43215U 18020A   26164.48424638  .00001726  00000+0  85333-4 0  9995","line2":"2 43215  97.4454 171.9227 0001695  87.8122 272.3307 15.19160868460445","category":"Other"},{"name":"GAOFEN-6","line1":"1 43484U 18048A   26164.61515889  .00001155  00000+0  17238-3 0  9991","line2":"2 43484  97.8551 227.4544 0011520 178.9049 181.2189 14.76596397432865","category":"Other"},{"name":"GOES 17","line1":"1 43226U 18022A   26164.53035343 -.00000172  00000+0  00000+0 0  9994","line2":"2 43226   0.9277  85.7717 0000414  32.1494 245.3562  1.00270307 30382","category":"Weather"},{"name":"AUTCUBE 2","line1":"1 43681U 18084K   26164.51966750  .00004365  00000+0  27223-3 0  9997","line2":"2 43681  98.0714  10.5003 0010122  60.1737 300.0496 15.10067794416375","category":"Other"},{"name":"HAIYANG-2B","line1":"1 43655U 18081A   26164.60860705  .00000145  00000+0  18399-3 0  9994","line2":"2 43655  99.3283 173.4187 0000625   6.5241 353.5919 13.79306683384434","category":"Other"},{"name":"LKW-4","line1":"1 43236U 18025A   26164.42805643  .00040487  00000+0  46428-3 0  9994","line2":"2 43236  97.6334 335.0082 0001784 311.0759  49.0344 15.61990085459443","category":"Other"},{"name":"ASNARO-2","line1":"1 43152U 18007A   26164.76822391  .00010218  00000+0  44500-3 0  9995","line2":"2 43152  97.3967 171.7488 0001711  90.0240 270.1193 15.22403605466893","category":"Other"},{"name":"MOHAMMED VI-B","line1":"1 43717U 18095A   26164.65436131  .00001096  00000+0  16231-3 0  9994","line2":"2 43717  97.9561 237.0282 0001266  94.7230 265.4125 14.77115328407662","category":"Other"},{"name":"JILIN-1 08","line1":"1 43160U 18008F   26164.63518091  .00005871  00000+0  18250-3 0  9992","line2":"2 43160  97.1800 183.9786 0008082  89.7386 270.4783 15.33673702464408","category":"Other"},{"name":"ZHUHAI-1 OHS-02","line1":"1 43441U 18040C   26164.60970845  .00008547  00000+0  33634-3 0  9992","line2":"2 43441  97.0370 188.9874 0007699 234.8035 125.2484 15.25834054113733","category":"Other"},{"name":"HYSIS","line1":"1 43719U 18096A   26164.62497584  .00001813  00000+0  25427-3 0  9997","line2":"2 43719  97.9846 231.4013 0001892 109.5227 250.6189 14.78691911406894","category":"Other"},{"name":"PAKTES 1A","line1":"1 43529U 18056A   26164.66730698  .00001557  00000+0  13293-3 0  9995","line2":"2 43529  98.1298 321.0042 0022253 117.0982 243.2513 14.99094400431396","category":"Other"},{"name":"PRSS-1","line1":"1 43530U 18056B   26164.61139356  .00001132  00000+0  14917-3 0  9999","line2":"2 43530  97.7825 232.5800 0001677  75.5162 284.6237 14.81984086427905","category":"Other"},{"name":"DIWATA-2B","line1":"1 43678U 18084H   26164.63540513  .00002510  00000+0  20450-3 0  9996","line2":"2 43678  98.1179   0.6898 0012283 181.5737 178.5449 15.00436708415680","category":"Other"},{"name":"S-NET C","line1":"1 43189U 18014K   26164.65050189  .00005010  00000+0  25954-3 0  9995","line2":"2 43189  97.5405  69.7323 0010849  29.3579 330.8261 15.16604983456779","category":"Other"},{"name":"SSTL S1-4","line1":"1 43618U 18071A   26164.61060597  .00001071  00000+0  99931-4 0  9995","line2":"2 43618  97.5050  36.3747 0001490  99.8057 260.3333 14.96180098422400","category":"Other"}]}